STARLINK-36704          
1 67697U 26025E   26054.16668981 -.00070314  00000+0 -36969-3 0  9994
2 67697  97.2802 164.9955 0001400  75.9789 216.7516 15.80792716  3517
STARLINK-36697          
1 67698U 26025F   26054.16668981  .00033519  00000+0  17537-3 0  9999
2 67698  97.2799 164.9991 0001438  88.5739 211.6446 15.80777130  3462
STARLINK-36716          
1 67699U 26025G   26054.16668981  .00149259  00000+0  76909-3 0  9997
2 67699  97.2805 165.0035 0001538 102.7914 207.2499 15.80747882  3670
STARLINK-36712          
1 67700U 26025H   26054.16668981  .00058342  00000+0  30362-3 0  9995
2 67700  97.2783 165.0075 0001402 101.1035 218.5676 15.80792160  3467
STARLINK-36713          
1 67701U 26025J   26054.16668981  .00060711  00000+0  31595-3 0  9998
2 67701  97.2770 165.0101 0000698  69.6579 259.7067 15.80784674  3676
STARLINK-36695          
1 67702U 26025K   26054.16668981 -.01886921  00000+0 -11581-1 0  9992
2 67702  97.2752 165.0125 0001271  94.9308 242.3676 15.80206151  3518
STARLINK-36630          
1 67703U 26025L   26054.16668981  .00049313  00000+0  25695-3 0  9999
2 67703  97.2748 165.0165 0001296  83.4969 261.8399 15.80797715  3510
STARLINK-36338          
1 67704U 26025M   26054.16668981  .00103333  00000+0  53503-3 0  9992
2 67704  97.2742 165.0208 0000962  96.4606 259.5146 15.80767615  3569
STARLINK-36316          
1 67705U 26025N   26054.16668981  .00077299  00000+0  40116-3 0  9990
2 67705  97.2732 165.0297 0001327  74.1105 303.6327 15.80792517  3561
STARLINK-36707          
1 67706U 26025P   26054.16668981  .00119672  00000+0  61851-3 0  9992
2 67706  97.2731 165.0345 0001446  70.3764 318.9017 15.80761693  3359
STARLINK-36645          
1 67707U 26025Q   26054.16668981  .00048563  00000+0  25313-3 0  9996
2 67707  97.2736 165.0245 0001407  76.5862 291.8284 15.80792598  3126
STARLINK-36287          
1 67708U 26025R   26054.16668981  .00163912  00000+0  84322-3 0  9998
2 67708  97.2715 165.0381 0001481  82.4796 316.8479 15.80744868  3670
