CCSDS_OMM_VERS = 2.0
CREATION_DATE  = 
ORIGINATOR     = 

OBJECT_NAME    = STARLINK-36704
OBJECT_ID      = 2026-025E
CENTER_NAME    = EARTH
REF_FRAME      = TEME
TIME_SYSTEM    = UTC
MEAN_ELEMENT_THEORY = SGP/SGP4

EPOCH          = 2026-02-23T04:00:01.999584
MEAN_MOTION    = 15.80792716
ECCENTRICITY   = .00014
INCLINATION    = 97.2802
RA_OF_ASC_NODE = 164.9955
ARG_OF_PERICENTER = 75.9789
MEAN_ANOMALY   = 216.7516

EPHEMERIS_TYPE = 0
CLASSIFICATION_TYPE = U
NORAD_CAT_ID   = 67697
ELEMENT_SET_NO = 999
REV_AT_EPOCH   = 351
BSTAR          = -.36969E-3
MEAN_MOTION_DOT = -.70314E-3
MEAN_MOTION_DDOT = 0

CCSDS_OMM_VERS = 2.0
CREATION_DATE  = 
ORIGINATOR     = 

OBJECT_NAME    = STARLINK-36697
OBJECT_ID      = 2026-025F
CENTER_NAME    = EARTH
REF_FRAME      = TEME
TIME_SYSTEM    = UTC
MEAN_ELEMENT_THEORY = SGP/SGP4

EPOCH          = 2026-02-23T04:00:01.999584
MEAN_MOTION    = 15.80777130
ECCENTRICITY   = .0001438
INCLINATION    = 97.2799
RA_OF_ASC_NODE = 164.9991
ARG_OF_PERICENTER = 88.5739
MEAN_ANOMALY   = 211.6446

EPHEMERIS_TYPE = 0
CLASSIFICATION_TYPE = U
NORAD_CAT_ID   = 67698
ELEMENT_SET_NO = 999
REV_AT_EPOCH   = 346
BSTAR          = .17537E-3
MEAN_MOTION_DOT = .33519E-3
MEAN_MOTION_DDOT = 0

CCSDS_OMM_VERS = 2.0
CREATION_DATE  = 
ORIGINATOR     = 

OBJECT_NAME    = STARLINK-36716
OBJECT_ID      = 2026-025G
CENTER_NAME    = EARTH
REF_FRAME      = TEME
TIME_SYSTEM    = UTC
MEAN_ELEMENT_THEORY = SGP/SGP4

EPOCH          = 2026-02-23T04:00:01.999584
MEAN_MOTION    = 15.80747882
ECCENTRICITY   = .0001538
INCLINATION    = 97.2805
RA_OF_ASC_NODE = 165.0035
ARG_OF_PERICENTER = 102.7914
MEAN_ANOMALY   = 207.2499

EPHEMERIS_TYPE = 0
CLASSIFICATION_TYPE = U
NORAD_CAT_ID   = 67699
ELEMENT_SET_NO = 999
REV_AT_EPOCH   = 367
BSTAR          = .76909E-3
MEAN_MOTION_DOT = .149259E-2
MEAN_MOTION_DDOT = 0

CCSDS_OMM_VERS = 2.0
CREATION_DATE  = 
ORIGINATOR     = 

OBJECT_NAME    = STARLINK-36712
OBJECT_ID      = 2026-025H
CENTER_NAME    = EARTH
REF_FRAME      = TEME
TIME_SYSTEM    = UTC
MEAN_ELEMENT_THEORY = SGP/SGP4

EPOCH          = 2026-02-23T04:00:01.999584
MEAN_MOTION    = 15.80792160
ECCENTRICITY   = .0001402
INCLINATION    = 97.2783
RA_OF_ASC_NODE = 165.0075
ARG_OF_PERICENTER = 101.1035
MEAN_ANOMALY   = 218.5676

EPHEMERIS_TYPE = 0
CLASSIFICATION_TYPE = U
NORAD_CAT_ID   = 67700
ELEMENT_SET_NO = 999
REV_AT_EPOCH   = 346
BSTAR          = .30362E-3
MEAN_MOTION_DOT = .58342E-3
MEAN_MOTION_DDOT = 0

CCSDS_OMM_VERS = 2.0
CREATION_DATE  = 
ORIGINATOR     = 

OBJECT_NAME    = STARLINK-36713
OBJECT_ID      = 2026-025J
CENTER_NAME    = EARTH
REF_FRAME      = TEME
TIME_SYSTEM    = UTC
MEAN_ELEMENT_THEORY = SGP/SGP4

EPOCH          = 2026-02-23T04:00:01.999584
MEAN_MOTION    = 15.80784674
ECCENTRICITY   = .0000698
INCLINATION    = 97.2770
RA_OF_ASC_NODE = 165.0101
ARG_OF_PERICENTER = 69.6579
MEAN_ANOMALY   = 259.7067

EPHEMERIS_TYPE = 0
CLASSIFICATION_TYPE = U
NORAD_CAT_ID   = 67701
ELEMENT_SET_NO = 999
REV_AT_EPOCH   = 367
BSTAR          = .31595E-3
MEAN_MOTION_DOT = .60711E-3
MEAN_MOTION_DDOT = 0

CCSDS_OMM_VERS = 2.0
CREATION_DATE  = 
ORIGINATOR     = 

OBJECT_NAME    = STARLINK-36695
OBJECT_ID      = 2026-025K
CENTER_NAME    = EARTH
REF_FRAME      = TEME
TIME_SYSTEM    = UTC
MEAN_ELEMENT_THEORY = SGP/SGP4

EPOCH          = 2026-02-23T04:00:01.999584
MEAN_MOTION    = 15.80206151
ECCENTRICITY   = .0001271
INCLINATION    = 97.2752
RA_OF_ASC_NODE = 165.0125
ARG_OF_PERICENTER = 94.9308
MEAN_ANOMALY   = 242.3676

EPHEMERIS_TYPE = 0
CLASSIFICATION_TYPE = U
NORAD_CAT_ID   = 67702
ELEMENT_SET_NO = 999
REV_AT_EPOCH   = 351
BSTAR          = -.11581E-1
MEAN_MOTION_DOT = -.1886921E-1
MEAN_MOTION_DDOT = 0

CCSDS_OMM_VERS = 2.0
CREATION_DATE  = 
ORIGINATOR     = 

OBJECT_NAME    = STARLINK-36630
OBJECT_ID      = 2026-025L
CENTER_NAME    = EARTH
REF_FRAME      = TEME
TIME_SYSTEM    = UTC
MEAN_ELEMENT_THEORY = SGP/SGP4

EPOCH          = 2026-02-23T04:00:01.999584
MEAN_MOTION    = 15.80797715
ECCENTRICITY   = .0001296
INCLINATION    = 97.2748
RA_OF_ASC_NODE = 165.0165
ARG_OF_PERICENTER = 83.4969
MEAN_ANOMALY   = 261.8399

EPHEMERIS_TYPE = 0
CLASSIFICATION_TYPE = U
NORAD_CAT_ID   = 67703
ELEMENT_SET_NO = 999
REV_AT_EPOCH   = 351
BSTAR          = .25695E-3
MEAN_MOTION_DOT = .49313E-3
MEAN_MOTION_DDOT = 0

CCSDS_OMM_VERS = 2.0
CREATION_DATE  = 
ORIGINATOR     = 

OBJECT_NAME    = STARLINK-36338
OBJECT_ID      = 2026-025M
CENTER_NAME    = EARTH
REF_FRAME      = TEME
TIME_SYSTEM    = UTC
MEAN_ELEMENT_THEORY = SGP/SGP4

EPOCH          = 2026-02-23T04:00:01.999584
MEAN_MOTION    = 15.80767615
ECCENTRICITY   = .0000962
INCLINATION    = 97.2742
RA_OF_ASC_NODE = 165.0208
ARG_OF_PERICENTER = 96.4606
MEAN_ANOMALY   = 259.5146

EPHEMERIS_TYPE = 0
CLASSIFICATION_TYPE = U
NORAD_CAT_ID   = 67704
ELEMENT_SET_NO = 999
REV_AT_EPOCH   = 356
BSTAR          = .53503E-3
MEAN_MOTION_DOT = .103333E-2
MEAN_MOTION_DDOT = 0

CCSDS_OMM_VERS = 2.0
CREATION_DATE  = 
ORIGINATOR     = 

OBJECT_NAME    = STARLINK-36316
OBJECT_ID      = 2026-025N
CENTER_NAME    = EARTH
REF_FRAME      = TEME
TIME_SYSTEM    = UTC
MEAN_ELEMENT_THEORY = SGP/SGP4

EPOCH          = 2026-02-23T04:00:01.999584
MEAN_MOTION    = 15.80792517
ECCENTRICITY   = .0001327
INCLINATION    = 97.2732
RA_OF_ASC_NODE = 165.0297
ARG_OF_PERICENTER = 74.1105
MEAN_ANOMALY   = 303.6327

EPHEMERIS_TYPE = 0
CLASSIFICATION_TYPE = U
NORAD_CAT_ID   = 67705
ELEMENT_SET_NO = 999
REV_AT_EPOCH   = 356
BSTAR          = .40116E-3
MEAN_MOTION_DOT = .77299E-3
MEAN_MOTION_DDOT = 0

CCSDS_OMM_VERS = 2.0
CREATION_DATE  = 
ORIGINATOR     = 

OBJECT_NAME    = STARLINK-36707
OBJECT_ID      = 2026-025P
CENTER_NAME    = EARTH
REF_FRAME      = TEME
TIME_SYSTEM    = UTC
MEAN_ELEMENT_THEORY = SGP/SGP4

EPOCH          = 2026-02-23T04:00:01.999584
MEAN_MOTION    = 15.80761693
ECCENTRICITY   = .0001446
INCLINATION    = 97.2731
RA_OF_ASC_NODE = 165.0345
ARG_OF_PERICENTER = 70.3764
MEAN_ANOMALY   = 318.9017

EPHEMERIS_TYPE = 0
CLASSIFICATION_TYPE = U
NORAD_CAT_ID   = 67706
ELEMENT_SET_NO = 999
REV_AT_EPOCH   = 335
BSTAR          = .61851E-3
MEAN_MOTION_DOT = .119672E-2
MEAN_MOTION_DDOT = 0

CCSDS_OMM_VERS = 2.0
CREATION_DATE  = 
ORIGINATOR     = 

OBJECT_NAME    = STARLINK-36645
OBJECT_ID      = 2026-025Q
CENTER_NAME    = EARTH
REF_FRAME      = TEME
TIME_SYSTEM    = UTC
MEAN_ELEMENT_THEORY = SGP/SGP4

EPOCH          = 2026-02-23T04:00:01.999584
MEAN_MOTION    = 15.80792598
ECCENTRICITY   = .0001407
INCLINATION    = 97.2736
RA_OF_ASC_NODE = 165.0245
ARG_OF_PERICENTER = 76.5862
MEAN_ANOMALY   = 291.8284

EPHEMERIS_TYPE = 0
CLASSIFICATION_TYPE = U
NORAD_CAT_ID   = 67707
ELEMENT_SET_NO = 999
REV_AT_EPOCH   = 312
BSTAR          = .25313E-3
MEAN_MOTION_DOT = .48563E-3
MEAN_MOTION_DDOT = 0

CCSDS_OMM_VERS = 2.0
CREATION_DATE  = 
ORIGINATOR     = 

OBJECT_NAME    = STARLINK-36287
OBJECT_ID      = 2026-025R
CENTER_NAME    = EARTH
REF_FRAME      = TEME
TIME_SYSTEM    = UTC
MEAN_ELEMENT_THEORY = SGP/SGP4

EPOCH          = 2026-02-23T04:00:01.999584
MEAN_MOTION    = 15.80744868
ECCENTRICITY   = .0001481
INCLINATION    = 97.2715
RA_OF_ASC_NODE = 165.0381
ARG_OF_PERICENTER = 82.4796
MEAN_ANOMALY   = 316.8479

EPHEMERIS_TYPE = 0
CLASSIFICATION_TYPE = U
NORAD_CAT_ID   = 67708
ELEMENT_SET_NO = 999
REV_AT_EPOCH   = 367
BSTAR          = .84322E-3
MEAN_MOTION_DOT = .163912E-2
MEAN_MOTION_DDOT = 0

